GLOBALSTAR M063 [+]     
1 26081U 00008A   24025.27476949 -.00000032  00000+0  73700-3 0  9991
2 26081  51.9984  11.8401 0004724  59.5182  43.5040 11.86150446 97184
GLOBALSTAR M062 [-]     
1 26082U 00008B   24025.55326924 -.00000072  00000+0  18607-3 0  9999
2 26082  51.9835 151.4709 0008168 107.7251  21.2596 12.43426450433347
GLOBALSTAR M060 [-]     
1 26083U 00008C   24025.37596193  .00000087  00000+0  17752-2 0  9991
2 26083  52.0034  40.0187 0003472 169.9401 297.8239 12.17624118 90384
GLOBALSTAR M064 [-]     
1 26084U 00008D   24025.42134115 -.00000056  00000+0  39340-3 0  9995
2 26084  52.0029 116.2816 0002272 148.8015 211.2953 11.88515048106602
GLOBALSTAR M069 [+]     
1 31573U 07020C   24025.07584759 -.00000037  00000+0  37133-3 0  9996
2 31573  51.9960 291.7900 0001414  50.1864  58.4162 12.62265086770258
GLOBALSTAR M072 [+]     
1 31574U 07020D   24025.30789785 -.00000067  00000+0  20726-3 0  9992
2 31574  52.0104  26.8893 0000171 266.9391 195.6347 12.62270019768551
GLOBALSTAR M071 [P]     
1 31576U 07020F   24024.93753751 -.00000023  00000+0  45137-3 0  9991
2 31576  52.0076 297.2644 0001689  58.7760  20.5583 12.62266068431421
